NORAD_CAT_ID,OBJECT_NAME,OBJECT_TYPE,EPOCH,MEAN_MOTION,ECCENTRICITY,INCLINATION,RA_OF_ASC_NODE,ARG_OF_PERICENTER,MEAN_ANOMALY,BSTAR,MEAN_MOTION_DOT,MEAN_MOTION_DDOT,TLE_LINE0,TLE_LINE1,TLE_LINE2,SEMIMAJOR_AXIS,PERIOD,APOGEE,PERIGEE,DECAYED
56452.0,STARLINK-5986,PAYLOAD,2023-09-23 00:59:59,14.98329621,0.0003712,69.9998,250.4074,268.7575,91.3159,4.2434e-05,4.13e-06,0.0,0 STARLINK-5986,1 56452U 23064E   23266.04166656  .00000413  00000-0  42434-4 0  9999,2 56452  69.9998 250.4074 0003712 268.7575  91.3159 14.98329621 20992,6950.194,96.107,574.639,569.479,0.0
56452.0,STARLINK-5986,PAYLOAD,2023-09-23 09:00:40,14.98332908,0.000371,69.9999,249.5661,269.0969,90.9765,7.2993e-05,7.78e-06,0.0,0 STARLINK-5986,1 56452U 23064E   23266.37546343  .00000778  00000-0  72993-4 0  9997,2 56452  69.9999 249.5661 0003710 269.0969  90.9765 14.98332908 20689,6950.184,96.107,574.627,569.47,0.0
56452.0,STARLINK-5986,PAYLOAD,2023-09-24 02:38:08,14.98332176,0.0003647,70.0001,247.7145,269.0619,91.0122,-1.775e-05,-3.05e-06,0.0,0 STARLINK-5986,1 56452U 23064E   23267.10982531 -.00000305  00000-0 -17750-4 0  9990,2 56452  70.0001 247.7145 0003647 269.0619  91.0122 14.98332176 21153,6950.186,96.107,574.586,569.516,0.0
56452.0,STARLINK-5986,PAYLOAD,2023-09-24 09:02:40,14.98337566,0.0003627,70.0002,247.0412,269.1112,90.9632,3.0747e-05,2.74e-06,0.0,0 STARLINK-5986,1 56452U 23064E   23267.37685967  .00000274  00000-0  30747-4 0  9996,2 56452  70.0002 247.0412 0003627 269.1112  90.9632 14.98337566 20837,6950.169,96.107,574.555,569.514,0.0
56452.0,STARLINK-5986,PAYLOAD,2023-09-25 02:40:10,14.98314429,0.0003512,70.0009,245.1904,269.0842,90.9915,0.00019036,2.178e-05,0.0,0 STARLINK-5986,1 56452U 23064E   23268.11122995  .00002178  00000-0  19036-3 0  9998,2 56452  70.0009 245.1904 0003512 269.0842  90.9915 14.98314429 21301,6950.241,96.108,574.547,569.665,0.0
56452.0,STARLINK-5986,PAYLOAD,2023-09-25 09:04:41,14.98331982,0.0003342,70.0009,244.5171,268.7705,91.3071,8.8286e-06,1.2e-07,0.0,0 STARLINK-5986,1 56452U 23064E   23268.37826308  .00000012  00000-0  88286-5 0  9995,2 56452  70.0009 244.5171 0003342 268.7705  91.3071 14.98331982 21340,6950.187,96.107,574.375,569.729,0.0
56452.0,STARLINK-5986,PAYLOAD,2023-09-25 15:29:14,14.98332448,0.0003335,70.001,243.8439,268.6245,91.4532,1.3128e-05,6.4e-07,0.0,0 STARLINK-5986,1 56452U 23064E   23268.64530221  .00000064  00000-0  13128-4 0  9990,2 56452  70.0010 243.8439 0003335 268.6245  91.4532 14.98332448 21027,6950.185,96.107,574.368,569.732,0.0
56452.0,STARLINK-5986,PAYLOAD,2023-09-26 09:06:42,14.98338044,0.0003312,70.0009,241.9926,264.2433,95.8349,5.0254e-05,5.07e-06,0.0,0 STARLINK-5986,1 56452U 23064E   23269.37965461  .00000507  00000-0  50254-4 0  9992,2 56452  70.0009 241.9926 0003312 264.2433  95.8349 14.98338044 21494,6950.168,96.106,574.335,569.731,0.0
56452.0,STARLINK-5986,PAYLOAD,2023-09-27 01:08:03,14.98322975,0.0003207,70.0004,240.3082,265.9247,94.1546,-5.8695e-05,-7.93e-06,0.0,0 STARLINK-5986,1 56452U 23064E   23270.04726733 -.00000793  00000-0 -58695-4 0  9991,2 56452  70.0004 240.3082 0003207 265.9247  94.1546 14.98322975 21597,6950.215,96.107,574.309,569.851,0.0
56452.0,STARLINK-5986,PAYLOAD,2023-09-27 07:32:36,14.98325012,0.0003178,70.0005,239.635,265.4469,94.6327,-3.2198e-05,-4.77e-06,0.0,0 STARLINK-5986,1 56452U 23064E   23270.31430606 -.00000477  00000-0 -32198-4 0  9991,2 56452  70.0005 239.6350 0003178 265.4469  94.6327 14.98325012 21277,6950.208,96.107,574.282,569.865,0.0
56452.0,STARLINK-5986,PAYLOAD,2023-09-28 02:46:13,14.98323261,0.0003309,70.0003,237.6139,269.3232,90.7548,-7.104e-05,-9.4e-06,0.0,0 STARLINK-5986,1 56452U 23064E   23271.11543036 -.00000940  00000-0 -71040-4 0  9996,2 56452  70.0003 237.6139 0003309 269.3232  90.7548 14.98323261 21754,6950.214,96.107,574.379,569.779,0.0
56452.0,STARLINK-5986,PAYLOAD,2023-09-28 07:34:38,14.9826572,0.0002737,70.0005,237.1092,269.0835,91.0011,0.00094645,0.00011199,0.0,0 STARLINK-5986,1 56452U 23064E   23271.31572287  .00011199  00000-0  94645-3 0  9999,2 56452  70.0005 237.1092 0002737 269.0835  91.0011 14.98265720 21786,6950.392,96.111,574.159,570.354,0.0
56452.0,STARLINK-5986,PAYLOAD,2023-09-28 21:59:49,14.98327302,0.0003178,70.0004,235.5955,270.6043,89.4752,7.7288e-05,8.29e-06,0.0,0 STARLINK-5986,1 56452U 23064E   23271.91654570  .00000829  00000-0  77288-4 0  9994,2 56452  70.0004 235.5955 0003178 270.6043  89.4752 14.98327302 21513,6950.201,96.107,574.275,569.857,0.0
56452.0,STARLINK-5986,PAYLOAD,2023-09-29 09:12:45,14.98333341,0.0003161,70.0006,234.4173,270.6864,89.3933,0.00013392,1.505e-05,0.0,0 STARLINK-5986,1 56452U 23064E   23272.38386059  .00001505  00000-0  13392-3 0  9997,2 56452  70.0006 234.4173 0003161 270.6864  89.3933 14.98333341 21945,6950.183,96.107,574.245,569.851,0.0
56452.0,STARLINK-5986,PAYLOAD,2023-09-30 04:26:22,14.98335528,0.0003139,70.0009,232.3976,272.9446,87.1354,0.00013035,1.463e-05,0.0,0 STARLINK-5986,1 56452U 23064E   23273.18497766  .00001463  00000-0  13035-3 0  9991,2 56452  70.0009 232.3976 0003139 272.9446  87.1354 14.98335528 21708,6950.176,96.107,574.222,569.859,0.0
56452.0,STARLINK-5986,PAYLOAD,2023-09-30 07:38:37,14.98355602,0.0003023,70.0008,232.0608,270.9194,89.1618,-8.2389e-05,-1.077e-05,0.0,0 STARLINK-5986,1 56452U 23064E   23273.31848864 -.00001077  00000-0 -82389-4 0  9997,2 56452  70.0008 232.0608 0003023 270.9194  89.1618 14.98355602 22088,6950.114,96.105,574.08,569.878,0.0
56452.0,STARLINK-5986,PAYLOAD,2023-09-30 14:03:11,14.98329623,0.0002839,70.0016,231.3876,275.7464,84.3371,-2.1704e-05,-3.52e-06,0.0,0 STARLINK-5986,1 56452U 23064E   23273.58554428 -.00000352  00000-0 -21704-4 0  9995,2 56452  70.0016 231.3876 0002839 275.7464  84.3371 14.98329623 22125,6950.194,96.107,574.032,570.086,0.0
56452.0,STARLINK-5986,PAYLOAD,2023-10-01 07:40:40,14.98329713,0.000291,70.001,229.5368,277.1151,82.9677,-0.00012226,-1.551e-05,0.0,0 STARLINK-5986,1 56452U 23064E   23274.31990751 -.00001551  00000-0 -12226-3 0  9990,2 56452  70.0010 229.5368 0002910 277.1151  82.9677 14.98329713 21877,6950.194,96.107,574.081,570.036,0.0
56452.0,STARLINK-5986,PAYLOAD,2023-10-01 14:05:12,14.98330816,0.0002803,70.0011,228.8634,274.2669,85.817,-0.00010411,-1.335e-05,0.0,0 STARLINK-5986,1 56452U 23064E   23274.58694647 -.00001335  00000-0 -10411-3 0  9998,2 56452  70.0011 228.8634 0002803 274.2669  85.8170 14.98330816 22270,6950.19,96.107,574.004,570.107,0.0
56452.0,STARLINK-5986,PAYLOAD,2023-10-02 07:42:40,14.98335469,0.0002808,70.0008,227.0124,266.8454,93.2384,-5.5071e-05,-7.5e-06,0.0,0 STARLINK-5986,1 56452U 23064E   23275.32130067 -.00000750  00000-0 -55071-4 0  9994,2 56452  70.0008 227.0124 0002808 266.8454  93.2384 14.98335469 22386,6950.176,96.107,573.993,570.089,0.0
56452.0,STARLINK-5986,PAYLOAD,2023-10-02 14:07:13,14.98320985,0.00026,70.0012,226.3397,268.0036,92.0825,5.3345e-05,5.43e-06,0.0,0 STARLINK-5986,1 56452U 23064E   23275.58834819  .00000543  00000-0  53345-4 0  9998,2 56452  70.0012 226.3397 0002600 268.0036  92.0825 14.98320985 22424,6950.221,96.108,573.893,570.279,0.0
56452.0,STARLINK-5986,PAYLOAD,2023-10-03 04:32:25,14.98325863,0.0002777,70.0007,224.8231,265.1672,94.917,0.00010386,1.146e-05,0.0,0 STARLINK-5986,1 56452U 23064E   23276.18918298  .00001146  00000-0  10386-3 0  9996,2 56452  70.0007 224.8231 0002777 265.1672  94.9170 14.98325863 22511,6950.206,96.107,574.001,570.141,0.0
56452.0,STARLINK-5986,PAYLOAD,2023-10-03 14:09:13,14.98328294,0.0003112,70.0004,223.8138,272.077,88.0033,1.8174e-05,1.24e-06,0.0,0 STARLINK-5986,1 56452U 23064E   23276.58974372  .00000124  00000-0  18174-4 0  9994,2 56452  70.0004 223.8138 0003112 272.0770  88.0033 14.98328294 22213,6950.198,96.107,574.226,569.9,0.0
56452.0,STARLINK-5986,PAYLOAD,2023-10-04 06:10:34,14.98328762,0.0002813,70.001,222.1304,271.2365,88.8472,-1.1773e-06,-1.07e-06,0.0,0 STARLINK-5986,1 56452U 23064E   23277.25734594 -.00000107  00000-0 -11773-5 0  9991,2 56452  70.0010 222.1304 0002813 271.2365  88.8472 14.98328762 22670,6950.197,96.107,574.017,570.107,0.0
56452.0,STARLINK-5986,PAYLOAD,2023-10-04 22:11:55,14.98329396,0.0003002,70.001,220.4482,269.5075,90.574,1.02e-05,2.9e-07,0.0,0 STARLINK-5986,1 56452U 23064E   23277.92494479  .00000029  00000-0  10200-4 0  9994,2 56452  70.0010 220.4482 0003002 269.5075  90.5740 14.98329396 22411,6950.195,96.107,574.146,569.973,0.0
56452.0,STARLINK-5986,PAYLOAD,2023-10-05 03:00:18,14.98341184,0.0003241,70.0004,219.9421,267.5605,92.5183,8.9019e-05,9.7e-06,0.0,0 STARLINK-5986,1 56452U 23064E   23278.12521466  .00000970  00000-0  89019-4 0  9993,2 56452  70.0004 219.9421 0003241 267.5605  92.5183 14.98341184 22807,6950.158,96.106,574.276,569.771,0.0
56452.0,STARLINK-5986,PAYLOAD,2023-10-05 06:12:34,14.98337487,0.0003223,70.001,219.606,270.9687,89.1102,0.00013943,1.571e-05,0.0,0 STARLINK-5986,1 56452U 23064E   23278.25873507  .00001571  00000-0  13943-3 0  9993,2 56452  70.0010 219.6060 0003223 270.9687  89.1102 14.98337487 22464,6950.17,96.107,574.275,569.795,0.0
56452.0,STARLINK-5986,PAYLOAD,2023-10-05 20:37:48,14.98324068,0.0003051,70.0008,218.0909,269.9026,90.1783,3.276e-05,2.98e-06,0.0,0 STARLINK-5986,1 56452U 23064E   23278.85958611  .00000298  00000-0  32760-4 0  9993,2 56452  70.0008 218.0909 0003051 269.9026  90.1783 14.98324068 22918,6950.211,96.107,574.197,569.956,0.0
56452.0,STARLINK-5986,PAYLOAD,2023-10-05 22:13:56,14.9832489,0.0002965,70.0008,217.9226,270.3455,89.7364,4.0571e-05,3.91e-06,0.0,0 STARLINK-5986,1 56452U 23064E   23278.92634570  .00000391  00000-0  40571-4 0  9999,2 56452  70.0008 217.9226 0002965 270.3455  89.7364 14.98324890 22566,6950.209,96.107,574.134,570.013,0.0
56452.0,STARLINK-5986,PAYLOAD,2023-10-06 07:50:43,14.98341235,0.0003185,70.0006,216.9136,267.3448,92.7347,7.0585e-05,7.5e-06,0.0,0 STARLINK-5986,1 56452U 23064E   23279.32689316  .00000750  00000-0  70585-4 0  9999,2 56452  70.0006 216.9136 0003185 267.3448  92.7347 14.98341235 22989,6950.158,96.106,574.237,569.81,0.0
